start=new Date('2023-02-11T00:00:00.000Z').valueOf();
sats=[{"MEAN_ELEMENT_THEORY":"SGP4","TLE_LINE1":"1 54009U 22125AX  23041.69196294  .00001113  00000-0  88004-4 0  9996","MEAN_MOTION_DOT":"0.00001113","ECCENTRICITY":"0.00012860","RA_OF_ASC_NODE":"215.0540","ARG_OF_PERICENTER":"81.2003","FILE":"3785071","REF_FRAME":"TEME","NORAD_CAT_ID":"54009","TIME_SYSTEM":"UTC","TLE_LINE2":"2 54009  53.2161 215.0540 0001286  81.2003 278.9135 15.08840260 19937","ELEMENT_SET_NO":"999","MEAN_MOTION_DDOT":"0.0000000000000","MEAN_MOTION":"15.08840260","EPOCH":"2023-02-10T16:36:25.598016","DECAY_DATE":null,"EPHEMERIS_TYPE":"0","OBJECT_ID":"2022-125AX","APOAPSIS":"540.634","LAUNCH_DATE":"2022-10-05","PERIAPSIS":"538.855","SEMIMAJOR_AXIS":"6917.880","BSTAR":"0.00008800400000","CLASSIFICATION_TYPE":"U","OBJECT_NAME":"STARLINK-5099","OBJECT_TYPE":"PAYLOAD","GP_ID":"225073269","RCS_SIZE":"LARGE","MEAN_ANOMALY":"278.9135","PERIOD":"95.438","INCLINATION":"53.2161","SITE":"AFWTR","REV_AT_EPOCH":"1993","COUNTRY_CODE":"US","CENTER_NAME":"EARTH"},{"ARG_OF_PERICENTER":"75.8333","RA_OF_ASC_NODE":"205.0546","NORAD_CAT_ID":"54010","TIME_SYSTEM":"UTC","REF_FRAME":"TEME","FILE":"3785071","ELEMENT_SET_NO":"999","MEAN_MOTION_DDOT":"0.0000000000000","TLE_LINE2":"2 54010  53.2163 205.0546 0001175  75.8333 284.2789 15.08848619 20076","MEAN_ELEMENT_THEORY":"SGP4","TLE_LINE1":"1 54010U 22125AY  23041.68551978  .00011392  00000-0  73253-3 0  9990","MEAN_MOTION_DOT":"0.00011392","ECCENTRICITY":"0.00011750","GP_ID":"225073019","OBJECT_TYPE":"PAYLOAD","SITE":"AFWTR","INCLINATION":"53.2163","RCS_SIZE":"LARGE","MEAN_ANOMALY":"284.2789","PERIOD":"95.437","CENTER_NAME":"EARTH","REV_AT_EPOCH":"2007","COUNTRY_CODE":"US","DECAY_DATE":null,"EPOCH":"2023-02-10T16:27:08.908992","MEAN_MOTION":"15.08848619","OBJECT_ID":"2022-125AY","EPHEMERIS_TYPE":"0","PERIAPSIS":"538.906","APOAPSIS":"540.532","LAUNCH_DATE":"2022-10-05","CLASSIFICATION_TYPE":"U","OBJECT_NAME":"STARLINK-5127","SEMIMAJOR_AXIS":"6917.854","BSTAR":"0.00073253000000"},{"OBJECT_TYPE":"PAYLOAD","GP_ID":"225074271","SITE":"AFWTR","INCLINATION":"53.2182","RCS_SIZE":"LARGE","PERIOD":"95.438","MEAN_ANOMALY":"277.3434","COUNTRY_CODE":"US","REV_AT_EPOCH":"2006","CENTER_NAME":"EARTH","DECAY_DATE":null,"MEAN_MOTION":"15.08840837","EPOCH":"2023-02-10T16:11:20.849568","EPHEMERIS_TYPE":"0","OBJECT_ID":"2022-125AZ","PERIAPSIS":"538.893","APOAPSIS":"540.593","LAUNCH_DATE":"2022-10-05","CLASSIFICATION_TYPE":"U","OBJECT_NAME":"STARLINK-5124","SEMIMAJOR_AXIS":"6917.878","BSTAR":"0.00007893100000","RA_OF_ASC_NODE":"205.6725","ARG_OF_PERICENTER":"82.7698","FILE":"3785071","REF_FRAME":"TEME","NORAD_CAT_ID":"54011","TIME_SYSTEM":"UTC","ELEMENT_SET_NO":"999","MEAN_MOTION_DDOT":"0.0000000000000","TLE_LINE2":"2 54011  53.2182 205.6725 0001229  82.7698 277.3434 15.08840837 20067","MEAN_ELEMENT_THEORY":"SGP4","TLE_LINE1":"1 54011U 22125AZ  23041.67454687  .00000969  00000-0  78931-4 0  9996","MEAN_MOTION_DOT":"0.00000969","ECCENTRICITY":"0.00012290"},{"APOAPSIS":"540.365","LAUNCH_DATE":"2022-10-05","PERIAPSIS":"538.976","SEMIMAJOR_AXIS":"6917.806","BSTAR":"0.00209330000000","OBJECT_NAME":"STARLINK-5126","CLASSIFICATION_TYPE":"U","EPOCH":"2023-02-10T17:09:35.566272","MEAN_MOTION":"15.08864448","DECAY_DATE":null,"EPHEMERIS_TYPE":"0","OBJECT_ID":"2022-125BA","COUNTRY_CODE":"US","REV_AT_EPOCH":"2007","CENTER_NAME":"EARTH","OBJECT_TYPE":"PAYLOAD","GP_ID":"225074518","MEAN_ANOMALY":"261.8327","RCS_SIZE":"LARGE","PERIOD":"95.436","SITE":"AFWTR","INCLINATION":"53.2179","ECCENTRICITY":"0.00010040","TLE_LINE1":"1 54012U 22125BA  23041.71499498  .00033206  00000-0  20933-2 0  9998","MEAN_ELEMENT_THEORY":"SGP4","MEAN_MOTION_DOT":"0.00033206","TLE_LINE2":"2 54012  53.2179 205.2115 0001004  98.2779 261.8327 15.08864448 20070","ELEMENT_SET_NO":"999","MEAN_MOTION_DDOT":"0.0000000000000","RA_OF_ASC_NODE":"205.2115","ARG_OF_PERICENTER":"98.2779","REF_FRAME":"TEME","FILE":"3785071","NORAD_CAT_ID":"54012","TIME_SYSTEM":"UTC"},{"ARG_OF_PERICENTER":"77.6726","RA_OF_ASC_NODE":"205.5582","NORAD_CAT_ID":"54013","TIME_SYSTEM":"UTC","FILE":"3785071","REF_FRAME":"TEME","MEAN_MOTION_DDOT":"0.0000000000000","ELEMENT_SET_NO":"999","TLE_LINE2":"2 54013  53.2172 205.5582 0001405  77.6726 282.4424 15.08843995 20063","MEAN_ELEMENT_THEORY":"SGP4","TLE_LINE1":"1 54013U 22125BB  23041.65612499  .00002673  00000-0  18593-3 0  9994","MEAN_MOTION_DOT":"0.00002673","ECCENTRICITY":"0.00014050","GP_ID":"225072769","OBJECT_TYPE":"PAYLOAD","INCLINATION":"53.2172","SITE":"AFWTR","RCS_SIZE":"LARGE","PERIOD":"95.437","MEAN_ANOMALY":"282.4424","CENTER_NAME":"EARTH","COUNTRY_CODE":"US","REV_AT_EPOCH":"2006","DECAY_DATE":null,"MEAN_MOTION":"15.08843995","EPOCH":"2023-02-10T15:44:49.199136","OBJECT_ID":"2022-125BB","EPHEMERIS_TYPE":"0","PERIAPSIS":"538.761","APOAPSIS":"540.705","LAUNCH_DATE":"2022-10-05","CLASSIFICATION_TYPE":"U","OBJECT_NAME":"STARLINK-5098","SEMIMAJOR_AXIS":"6917.868","BSTAR":"0.00018593000000"},{"ECCENTRICITY":"0.00012390","MEAN_MOTION_DOT":"0.00001197","MEAN_ELEMENT_THEORY":"SGP4","TLE_LINE1":"1 54014U 22125BC  23041.65243657  .00001197  00000-0  93292-4 0  9991","MEAN_MOTION_DDOT":"0.0000000000000","ELEMENT_SET_NO":"999","TLE_LINE2":"2 54014  53.2178 205.5364 0001239  75.9423 284.1707 15.08843021 20061","NORAD_CAT_ID":"54014","TIME_SYSTEM":"UTC","FILE":"3785071","REF_FRAME":"TEME","ARG_OF_PERICENTER":"75.9423","RA_OF_ASC_NODE":"205.5364","OBJECT_NAME":"STARLINK-5116","CLASSIFICATION_TYPE":"U","SEMIMAJOR_AXIS":"6917.871","BSTAR":"0.00009329200000","PERIAPSIS":"538.879","APOAPSIS":"540.593","LAUNCH_DATE":"2022-10-05","OBJECT_ID":"2022-125BC","EPHEMERIS_TYPE":"0","DECAY_DATE":null,"MEAN_MOTION":"15.08843021","EPOCH":"2023-02-10T15:39:30.519648","CENTER_NAME":"EARTH","COUNTRY_CODE":"US","REV_AT_EPOCH":"2006","SITE":"AFWTR","INCLINATION":"53.2178","MEAN_ANOMALY":"284.1707","RCS_SIZE":"LARGE","PERIOD":"95.437","GP_ID":"225073520","OBJECT_TYPE":"PAYLOAD"},{"DECAY_DATE":null,"MEAN_MOTION":"15.08840581","EPOCH":"2023-02-10T16:58:58.895904","OBJECT_ID":"2022-125BD","EPHEMERIS_TYPE":"0","PERIAPSIS":"538.927","APOAPSIS":"540.561","LAUNCH_DATE":"2022-10-05","OBJECT_NAME":"STARLINK-5055","CLASSIFICATION_TYPE":"U","SEMIMAJOR_AXIS":"6917.879","BSTAR":"0.00008215300000","GP_ID":"225073772","OBJECT_TYPE":"PAYLOAD","SITE":"AFWTR","INCLINATION":"53.2195","RCS_SIZE":"LARGE","PERIOD":"95.438","MEAN_ANOMALY":"272.9586","CENTER_NAME":"EARTH","REV_AT_EPOCH":"2007","COUNTRY_CODE":"US","TLE_LINE1":"1 54015U 22125BD  23041.70762611  .00001020  00000-0  82153-4 0  9993","MEAN_ELEMENT_THEORY":"SGP4","MEAN_MOTION_DOT":"0.00001020","ECCENTRICITY":"0.00011810","ARG_OF_PERICENTER":"87.1542","RA_OF_ASC_NODE":"205.1700","TIME_SYSTEM":"UTC","NORAD_CAT_ID":"54015","FILE":"3785071","REF_FRAME":"TEME","ELEMENT_SET_NO":"999","MEAN_MOTION_DDOT":"0.0000000000000","TLE_LINE2":"2 54015  53.2195 205.1700 0001181  87.1542 272.9586 15.08840581 20073"},{"OBJECT_TYPE":"PAYLOAD","GP_ID":"225072773","MEAN_ANOMALY":"241.3026","RCS_SIZE":"LARGE","PERIOD":"95.435","INCLINATION":"53.2179","SITE":"AFETR","COUNTRY_CODE":"US","REV_AT_EPOCH":"1723","CENTER_NAME":"EARTH","MEAN_MOTION":"15.08874729","EPOCH":"2023-02-10T05:06:19.096992","DECAY_DATE":null,"EPHEMERIS_TYPE":"0","OBJECT_ID":"2022-136A","APOAPSIS":"540.210","LAUNCH_DATE":"2022-10-20","PERIAPSIS":"539.069","BSTAR":"0.00285580000000","SEMIMAJOR_AXIS":"6917.774","OBJECT_NAME":"STARLINK-5195","CLASSIFICATION_TYPE":"U","RA_OF_ASC_NODE":"347.8449","ARG_OF_PERICENTER":"118.8049","FILE":"3785071","REF_FRAME":"TEME","NORAD_CAT_ID":"54051","TIME_SYSTEM":"UTC","TLE_LINE2":"2 54051  53.2179 347.8449 0000825 118.8049 241.3026 15.08874729 17231","MEAN_MOTION_DDOT":"0.0000000000000","ELEMENT_SET_NO":"999","TLE_LINE1":"1 54051U 22136A   23041.21272103  .00045499  00000-0  28558-2 0  9998","MEAN_ELEMENT_THEORY":"SGP4","MEAN_MOTION_DOT":"0.00045499","ECCENTRICITY":"0.00008250"},{"REV_AT_EPOCH":"130","COUNTRY_CODE":"US","CENTER_NAME":"EARTH","MEAN_ANOMALY":"76.4203","RCS_SIZE":"LARGE","PERIOD":"92.849","INCLINATION":"53.2139","SITE":"AFETR","OBJECT_TYPE":"PAYLOAD","GP_ID":"225073524","BSTAR":"-0.01738400000000","SEMIMAJOR_AXIS":"6792.208","CLASSIFICATION_TYPE":"U","OBJECT_NAME":"STARLINK-5189","APOAPSIS":"414.856","LAUNCH_DATE":"2022-10-20","PERIAPSIS":"413.290","EPHEMERIS_TYPE":"0","OBJECT_ID":"2022-136B","MEAN_MOTION":"15.50908823","EPOCH":"2023-02-10T22:00:00.999936","DECAY_DATE":null,"TLE_LINE2":"2 54052  53.2139 307.6974 0001153  84.3331  76.4203 15.50908823  1306","MEAN_MOTION_DDOT":"0.0000000000000","ELEMENT_SET_NO":"999","FILE":"3785071","REF_FRAME":"TEME","NORAD_CAT_ID":"54052","TIME_SYSTEM":"UTC","RA_OF_ASC_NODE":"307.6974","ARG_OF_PERICENTER":"84.3331","ECCENTRICITY":"0.00011530","MEAN_MOTION_DOT":"-0.00939676","MEAN_ELEMENT_THEORY":"SGP4","TLE_LINE1":"1 54052U 22136B   23041.91667824 -.00939676  00000-0 -17384-1 0  9999"},{"ECCENTRICITY":"0.00008760","MEAN_ELEMENT_THEORY":"SGP4","TLE_LINE1":"1 54053U 22136C   23041.20904043  .00046452  00000-0  29157-2 0  9990","MEAN_MOTION_DOT":"0.00046452","TLE_LINE2":"2 54053  53.2187 347.8285 0000876  69.4181 290.6905 15.08864240 17234","ELEMENT_SET_NO":"999","MEAN_MOTION_DDOT":"0.0000000000000","ARG_OF_PERICENTER":"69.4181","RA_OF_ASC_NODE":"347.8285","NORAD_CAT_ID":"54053","TIME_SYSTEM":"UTC","REF_FRAME":"TEME","FILE":"3785071","APOAPSIS":"540.277","LAUNCH_DATE":"2022-10-20","PERIAPSIS":"539.065","BSTAR":"0.00291570000000","SEMIMAJOR_AXIS":"6917.806","CLASSIFICATION_TYPE":"U","OBJECT_NAME":"STARLINK-5176","EPOCH":"2023-02-10T05:01:01.093152","MEAN_MOTION":"15.08864240","DECAY_DATE":null,"OBJECT_ID":"2022-136C","EPHEMERIS_TYPE":"0","CENTER_NAME":"EARTH","COUNTRY_CODE":"US","REV_AT_EPOCH":"1723","GP_ID":"225073776","OBJECT_TYPE":"PAYLOAD","PERIOD":"95.436","RCS_SIZE":"LARGE","MEAN_ANOMALY":"290.6905","INCLINATION":"53.2187","SITE":"AFETR"}];
